BEIDOU-2 IGSO-1 (C06)   
1 36828U 10036A   23322.52242622 -.00000068  00000+0  00000+0 0  9997
2 36828  54.2350 171.4858 0037996 190.7035 350.5170  1.00288473 48760
BEIDOU-2 G4 (C04)       
1 37210U 10057A   23322.57271818 -.00000102  00000+0  00000+0 0  9999
2 37210   1.3465  63.9857 0007752 175.5214 184.0469  1.00270478 47842
BEIDOU-2 IGSO-2 (C07)   
1 37256U 10068A   23322.17146270 -.00000197  00000+0  00000+0 0  9994
2 37256  49.2765 283.4012 0030417 214.7715  87.6912  1.00259061 47345
BEIDOU-2 IGSO-3 (C08)   
1 37384U 11013A   23322.24598230 -.00000188  00000+0  00000+0 0  9992
2 37384  61.0451  49.1708 0028080 181.0814  22.2518  1.00262190 46218
BEIDOU-2 IGSO-4 (C09)   
1 37763U 11038A   23322.34107828  .00000043  00000+0  00000+0 0  9999
2 37763  54.5079 174.0439 0112160 227.0507 232.4183  1.00258667 45209
BEIDOU-2 IGSO-5 (C10)   
1 37948U 11073A   23322.37631503 -.00000138  00000+0  00000+0 0  9994
2 37948  49.4021 283.0702 0093502 221.4070 141.2848  1.00255324 43692
BEIDOU-2 G5 (C05)       
1 38091U 12008A   23322.45396525  .00000067  00000+0  00000+0 0  9994
2 38091   1.8896  69.5539 0007325 193.4103  16.4410  1.00274334 42927
BEIDOU-2 M3 (C11)       
1 38250U 12018A   23321.29829299 -.00000050  00000+0  00000+0 0  9995
2 38250  56.4710 336.4190 0025444 260.8789  98.8697  1.86231082 78382
BEIDOU-2 M4 (C12)       
1 38251U 12018B   23319.08161163 -.00000051  00000+0  00000+0 0  9990
2 38251  56.3819 335.7804 0016351 262.7155  97.1397  1.86231879 78340
BEIDOU-2 M6 (C14)       
1 38775U 12050B   23322.01297160  .00000037  00000+0  00000+0 0  9994
2 38775  55.7497  94.2653 0010603 335.5375  24.3933  1.86230971 75765
BEIDOU-2 G6 (C02)       
1 38953U 12059A   23322.51790102 -.00000165  00000+0  00000+0 0  9993
2 38953   2.0182  81.6598 0007542 293.0522 313.0928  1.00270763 40467
BEIDOU-3S IGSO-1S (C31) 
1 40549U 15019A   23322.44758667 -.00000153  00000+0  00000+0 0  9995
2 40549  50.9677 306.6875 0036748 196.2856 167.8257  1.00294923 31637
BEIDOU-3S M2S (C57)     
1 40748U 15037A   23322.50536877 -.00000050  00000+0  00000+0 0  9996
2 40748  55.6184 334.2191 0012953 253.5045 106.3856  1.86233030 56580
BEIDOU-3S M1S (C58)     
1 40749U 15037B   23321.70166851 -.00000050  00000+0  00000+0 0  9999
2 40749  55.6220 334.2330 0006070 302.7960  57.1788  1.86232805 56578
BEIDOU-3S IGSO-2S (C56) 
1 40938U 15053A   23322.17338631 -.00000136  00000+0  00000+0 0  9991
2 40938  50.6953 269.8788 0046503 194.4306 111.1150  1.00265442 29901
BEIDOU-2 IGSO-6 (C13)   
1 41434U 16021A   23322.17522312 -.00000166  00000+0  00000+0 0  9993
2 41434  58.8611  47.5065 0049685 221.1277 307.6368  1.00267689 28033
BEIDOU-2 G7 (C03)       
1 41586U 16037A   23322.55813312 -.00000343  00000+0  00000+0 0  9990
2 41586   1.4038  65.4723 0008857 315.4337 347.9239  1.00267602 27340
BEIDOU-3 M1 (C19)       
1 43001U 17069A   23321.77922140  .00000037  00000+0  00000+0 0  9992
2 43001  55.9006  94.3422 0007780 290.4736  69.4233  1.86231129 41052
BEIDOU-3 M2 (C20)       
1 43002U 17069B   23321.71609352  .00000037  00000+0  00000+0 0  9994
2 43002  55.9000  94.3799 0005372 322.6992  37.2437  1.86230952 41042
BEIDOU-3 M7 (C27)       
1 43107U 18003A   23318.24493733 -.00000054  00000+0  00000+0 0  9997
2 43107  55.0775 335.0491 0002547  57.2142 302.8523  1.86232385 39733
BEIDOU-3 M8 (C28)       
1 43108U 18003B   23321.40533679 -.00000052  00000+0  00000+0 0  9992
2 43108  55.0688 334.9272 0005003 259.1474 100.8304  1.86230796 39808
BEIDOU-3 M4 (C22)       
1 43207U 18018A   23320.77334027  .00000033  00000+0  00000+0 0  9991
2 43207  55.8586  94.4722 0003288  10.5795 349.4046  1.86231106 39179
BEIDOU-3 M3 (C21)       
1 43208U 18018B   23321.91390459  .00000037  00000+0  00000+0 0  9994
2 43208  55.8588  94.4386 0005305 304.1499  55.7806  1.86231123 39195
BEIDOU-3 M9 (C29)       
1 43245U 18029A   23317.84088185 -.00000054  00000+0  00000+0 0  9994
2 43245  54.9698 332.7911 0002027 259.5046 100.5122  1.86232580 38275
BEIDOU-3 M10 (C30)      
1 43246U 18029B   23320.99249309 -.00000050  00000+0  00000+0 0  9998
2 43246  54.9648 332.7107 0003790 338.6956  21.3203  1.86232731 38318
BEIDOU-2 IGSO-7 (C16)   
1 43539U 18057A   23320.51746088 -.00000057  00000+0  00000+0 0  9995
2 43539  55.1189 171.2169 0063554 229.2039 314.1529  1.00260967 19682
BEIDOU-3 M5 (C23)       
1 43581U 18062A   23321.21277565  .00000039  00000+0  00000+0 0  9994
2 43581  54.1609 214.3949 0002822 313.2866  46.7759  1.86231807 36073
BEIDOU-3 M6 (C24)       
1 43582U 18062B   23322.15342920  .00000029  00000+0  00000+0 0  9996
2 43582  54.1603 214.3523 0006597  25.9733 334.1422  1.86229676 36093
BEIDOU-3 M12 (C26)      
1 43602U 18067A   23322.08905542  .00000032  00000+0  00000+0 0  9995
2 43602  54.2488 213.0163 0007956  24.2523 335.8693  1.86231412 35574
BEIDOU-3 M11 (C25)      
1 43603U 18067B   23322.22288949  .00000030  00000+0  00000+0 0  9995
2 43603  54.2459 212.9773 0004769  17.9827 342.1178  1.86231373 35602
BEIDOU-3 M13 (C32)      
1 43622U 18072A   23321.10802251  .00000033  00000+0  00000+0 0  9999
2 43622  55.8288  93.9983 0004617 282.0669  77.8597  1.86231127 35098
BEIDOU-3 M14 (C33)      
1 43623U 18072B   23322.04738502  .00000037  00000+0  00000+0 0  9995
2 43623  55.8313  93.9598 0002116 324.7725  35.1948  1.86231133 35105
BEIDOU-3 M16 (C35)      
1 43647U 18078A   23322.21119217 -.00000050  00000+0  00000+0 0  9998
2 43647  54.8629 332.7565 0006561 358.6324   1.3965  1.86232168 34604
BEIDOU-3 M15 (C34)      
1 43648U 18078B   23321.80331685 -.00000050  00000+0  00000+0 0  9998
2 43648  54.8590 332.7740 0003500 357.3508   2.6783  1.86232066 34628
BEIDOU-3 G1 (C59)       
1 43683U 18085A   23322.58938466 -.00000266  00000+0  00000+0 0  9990
2 43683   1.6838 119.5593 0002145  10.9574 279.1243  1.00273708 18615
BEIDOU-3 M17 (C36)      
1 43706U 18093A   23321.41416549  .00000037  00000+0  00000+0 0  9994
2 43706  54.2435 214.3107 0007826 291.0660  68.9359  1.86231884 33984
BEIDOU-3 M18 (C37)      
1 43707U 18093B   23321.81793692  .00000033  00000+0  00000+0 0  9992
2 43707  54.2441 214.2887 0007082 325.3157  34.7222  1.86229703 33989
BEIDOU-3 IGSO-1 (C38)   
1 44204U 19023A   23321.64007904 -.00000221  00000+0  00000+0 0  9994
2 44204  57.3283  47.4636 0024529 199.9882 157.8576  1.00259833 16885
BEIDOU-2 G8 (C01)       
1 44231U 19027A   23322.54146699 -.00000238  00000+0  00000+0 0  9991
2 44231   1.4273  71.4715 0004732 165.7538 159.5373  1.00266873 16631
BEIDOU-3 IGSO-2 (C39)   
1 44337U 19035A   23321.97965926 -.00000071  00000+0  00000+0 0  9990
2 44337  55.1555 167.1341 0033089 194.0399 165.1301  1.00250958 16217
BEIDOU-3 M24 (C46)      
1 44542U 19061A   23321.88904289  .00000032  00000+0  00000+0 0  9998
2 44542  54.4709 214.5389 0008754   1.0957 358.9897  1.86231450 28243
BEIDOU-3 M23 (C45)      
1 44543U 19061B   23321.25576759  .00000039  00000+0  00000+0 0  9994
2 44543  54.4693 214.5297 0005636 354.2154 213.2670  1.86231753 28239
BEIDOU-3 IGSO-3 (C40)   
1 44709U 19073A   23321.32255428 -.00000181  00000+0  00000+0 0  9995
2 44709  56.4141 290.9724 0034275 190.5647 169.3139  1.00259478 15007
BEIDOU-3 M22 (C44)      
1 44793U 19078A   23320.66046757 -.00000051  00000+0  00000+0 0  9998
2 44793  54.7122 332.7681 0005399   3.9888 356.0476  1.86232020 27073
BEIDOU-3 M21 (C43)      
1 44794U 19078B   23319.18000793 -.00000052  00000+0  00000+0 0  9995
2 44794  54.6868 332.8001 0003571 348.4180  11.6093  1.86232547 27050
BEIDOU-3 M19 (C41)      
1 44864U 19090A   23320.98007314  .00000033  00000+0  00000+0 0  9991
2 44864  55.7630  94.1859 0016064 271.8785  48.6027  1.86231437 26667
BEIDOU-3 M20 (C42)      
1 44865U 19090B   23322.44341500  .00000038  00000+0  00000+0 0  9998
2 44865  55.7658  94.1699 0013591 285.6903  25.6649  1.86231340 26676
BEIDOU-3 G2 (C60)       
1 45344U 20017A   23321.37757978 -.00000127  00000+0  00000+0 0  9993
2 45344   2.1002  20.0303 0003141 209.3871  42.7189  1.00270066 13809
BEIDOU-3 G3 (C61)       
1 45807U 20040A   23322.55813312 -.00000344  00000+0  00000+0 0  9990
2 45807   0.5808   0.9434 0009149 309.6502  58.2644  1.00274158 12623
BEIDOU-3 G4             
1 56564U 23066A   23322.53295595 -.00000104  00000+0  00000+0 0  9992
2 56564   2.6563 288.5368 0004946 230.6615 249.9420  1.00269779  1952
